     2.100          NAVIGATION                              RINEX VERSION / TYPE
fic2rin                                 06/06/2010 00:06:12 PGM / RUN BY / DATE
                                                            END OF HEADER
30 10  6  5 22  0  0.0  .249240547419D-03  .341060513165D-11  .000000000000D+00
     .540000000000D+02 -.134687500000D+02  .484198740250D-08  .199023235762D+01
    -.100396573544D-05  .122616383014D-01  .575743615627D-05  .515372557449D+04
     .597600000000D+06  .931322574615D-07 -.289761166310D+01 -.195577740669D-06
     .956482604311D+00  .262375000000D+03  .148220596218D+01 -.810605193531D-08
     .850035407387D-10  .100000000000D+01  .158600000000D+04  .000000000000D+00
     .240000000000D+01  .000000000000D+00 -.791624188423D-08  .540000000000D+02
     .590406000000D+06  .400000000000D+01
31 10  6  5 22  0  0.0 -.325511209667D-04  .216004991671D-11  .000000000000D+00
     .650000000000D+02 -.603125000000D+01  .421231831711D-08 -.192769725889D+01
    -.135973095894D-06  .736510509159D-02  .843591988087D-05  .515370280457D+04
     .597600000000D+06 -.121071934700D-06  .238543792270D+01  .135973095894D-06
     .976987550219D+00  .228000000000D+03 -.105052791395D+01 -.781996859022D-08
     .205365697163D-09  .100000000000D+01  .158600000000D+04  .000000000000D+00
     .240000000000D+01  .000000000000D+00 -.130385160446D-07  .650000000000D+02
     .590406000000D+06  .400000000000D+01
32 10  6  5 22  0  0.0 -.915350392461D-05 -.852651282912D-11  .000000000000D+00
     .100000000000D+02  .285312500000D+02  .464983654150D-08 -.113075562001D+01
     .152364373207D-05  .126321276184D-01  .517815351486D-05  .515372135925D+04
     .597600000000D+06 -.186264514923D-06  .373430016299D+00 -.316649675369D-07
     .959364917194D+00  .283687500000D+03 -.977551897200D+00 -.839784980415D-08
     .157863718515D-09  .100000000000D+01  .158600000000D+04  .000000000000D+00
     .240000000000D+01  .000000000000D+00 -.325962901115D-08  .100000000000D+02
     .590406000000D+06  .400000000000D+01
 1 10  6  6  0  0  0.0 -.127135310322D-03 -.409272615798D-11  .000000000000D+00
     .430000000000D+02 -.126250000000D+02  .601167898199D-08  .253267781711D+01
    -.715255737305D-06  .475097901653D-02  .612437725067D-05  .515480198669D+04
     .000000000000D+00 -.465661287308D-07 -.297879840997D+01 -.689178705215D-07
     .965097136398D+00  .263937500000D+03  .869881214341D+00 -.806783605776D-08
     .147506144223D-09  .100000000000D+01  .158700000000D+04  .000000000000D+00
     .240000000000D+01  .630000000000D+02 -.190921127796D-07  .430000000000D+02
     .597606000000D+06  .400000000000D+01
 2 10  6  6  0  0  0.0  .262112822384D-03  .329691829393D-11  .000000000000D+00
     .780000000000D+02  .530312500000D+02  .495699219291D-08  .763677000064D+00
     .276975333691D-05  .958326610271D-02  .867620110512D-05  .515359173393D+04
     .000000000000D+00  .230967998505D-06 -.895507176668D+00  .188127160072D-06
     .939765946212D+00  .199656250000D+03  .308003501381D+01 -.828498796015D-08
    -.482162941165D-10  .100000000000D+01  .158700000000D+04  .000000000000D+00
     .240000000000D+01  .000000000000D+00 -.172294676304D-07  .780000000000D+02
     .597606000000D+06  .400000000000D+01
 3 10  6  6  0  0  0.0  .564524903893D-03  .500222085975D-11  .000000000000D+00
     .146000000000D+03 -.383125000000D+02  .559059001337D-08  .688545097033D+00
    -.168196856976D-05  .131341191009D-01  .763125717640D-05  .515370979309D+04
     .000000000000D+00 -.162050127983D-06 -.204841355322D+01  .670552253723D-07
     .926986306415D+00  .217093750000D+03  .998025285039D+00 -.872143471133D-08
    -.367515308488D-09  .100000000000D+01  .158700000000D+04  .000000000000D+00
     .340000000000D+01  .000000000000D+00 -.465661287308D-08  .146000000000D+03
     .597606000000D+06  .400000000000D+01
 4 10  6  6  0  0  0.0  .977097079158D-04  .818545231596D-11  .000000000000D+00
     .940000000000D+02  .523437500000D+02  .484734476851D-08 -.242750133058D+01
     .265054404736D-05  .907037931029D-02  .892207026482D-05  .515370048141D+04
     .000000000000D+00  .372529029846D-08 -.877657304190D+00 -.447034835815D-07
     .938916154655D+00  .196625000000D+03  .609180117654D+00 -.805997858760D-08
     .614311302817D-10  .100000000000D+01  .158700000000D+04  .000000000000D+00
     .240000000000D+01  .000000000000D+00 -.605359673500D-08  .940000000000D+02
     .597606000000D+06  .400000000000D+01
 5 10  6  6  0  0  0.0 -.580912455916D-05 -.181898940355D-11  .000000000000D+00
     .640000000000D+02  .353125000000D+02  .471233914498D-08  .236319062966D+01
     .183470547199D-05  .181494653225D-02  .492669641972D-05  .515371409798D+04
     .000000000000D+00 -.186264514923D-08  .163976540361D+00 -.260770320892D-07
     .958565019921D+00  .283937500000D+03  .284416752791D+00 -.829498837670D-08
    -.103575742917D-10  .100000000000D+01  .158700000000D+04  .000000000000D+00
     .240000000000D+01  .000000000000D+00 -.884756445885D-08  .640000000000D+02
     .597606000000D+06  .400000000000D+01
 6 10  6  6  0  0  0.0  .617368146777D-03 -.122781784739D-10  .000000000000D+00
     .720000000000D+02 -.411875000000D+02  .526950521033D-08  .290731030233D+01
    -.190921127796D-05  .629762909375D-02  .790692865849D-05  .515366110992D+04
     .000000000000D+00  .894069671631D-07 -.197770304213D+01  .838190317154D-07
     .934279773737D+00  .211125000000D+03 -.105336143851D+01 -.829748848084D-08
    -.278225874939D-09  .100000000000D+01  .158700000000D+04  .000000000000D+00
     .240000000000D+01  .000000000000D+00 -.512227416039D-08  .720000000000D+02
     .597606000000D+06  .400000000000D+01
 7 10  6  6  0  0  0.0 -.103749334812D-05 -.341060513165D-12  .000000000000D+00
     .750000000000D+02 -.212500000000D+01  .428196407528D-08 -.812163883737D+00
    -.180676579475D-06  .356930994894D-02  .825524330139D-05  .515371241379D+04
     .000000000000D+00  .130385160446D-07  .226533629388D+01 -.186264514923D-07
     .971736366274D+00  .224562500000D+03  .302870095801D+01 -.795997442203D-08
     .292155026572D-09  .100000000000D+01  .158700000000D+04  .000000000000D+00
     .240000000000D+01  .000000000000D+00 -.102445483208D-07  .750000000000D+02
     .597606000000D+06  .400000000000D+01
 8 10  6  6  0  0  0.0  .567175447941D-05  .113686837722D-12  .000000000000D+00
     .120000000000D+03  .406250000000D+00  .384730311276D-08 -.145551379883D+01
    -.290572643280D-06  .111053315923D-01  .823847949505D-05  .515368606567D+04
     .000000000000D+00 -.372529029846D-08  .233344040429D+01 -.109896063805D-06
     .993154322281D+00  .238062500000D+03  .310021635639D+01 -.771424990090D-08
     .439304013061D-09  .100000000000D+01  .158700000000D+04  .000000000000D+00
     .340000000000D+01  .000000000000D+00 -.372529029846D-08  .120000000000D+03
     .597606000000D+06  .400000000000D+01
 9 10  6  6  0  0  0.0  .108215026557D-04  .227373675443D-11  .000000000000D+00
     .970000000000D+02  .315625000000D+01  .409052752975D-08 -.156889368919D+01
     .549480319023D-06  .170961733675D-01  .881776213646D-05  .515371321869D+04
     .000000000000D+00  .119209289551D-06  .223420117664D+01  .428408384323D-06
     .980813410153D+00  .220062500000D+03  .152022858259D+01 -.780461080765D-08
     .290369237901D-09  .100000000000D+01  .158700000000D+04  .000000000000D+00
     .240000000000D+01  .000000000000D+00 -.558793544769D-08  .970000000000D+02
     .597606000000D+06  .400000000000D+01
10 10  6  6  0  0  0.0 -.439765863121D-04 -.682121026330D-12  .000000000000D+00
     .176000000000D+03  .320625000000D+02  .473555439771D-08  .243875714078D+01
     .161491334438D-05  .916090246756D-02  .491365790367D-05  .515351250458D+04
     .000000000000D+00 -.502914190292D-07  .189679112782D+00 -.178813934326D-06
     .953582063469D+00  .281843750000D+03  .667864327390D+00 -.824105755884D-08
     .285726187357D-10  .100000000000D+01  .158700000000D+04  .000000000000D+00
     .340000000000D+01  .000000000000D+00 -.279396772385D-08  .176000000000D+03
     .597606000000D+06  .400000000000D+01
11 10  6  6  0  0  0.0 -.671464949846D-04 -.238742359215D-11  .000000000000D+00
     .870000000000D+02  .258750000000D+02  .608132474016D-08 -.950431896138D+00
     .134296715260D-05  .106602193555D-01  .861473381519D-05  .515374823189D+04
     .000000000000D+00  .197440385818D-06 -.111458147630D+01  .210478901863D-06
     .888166884264D+00  .174093750000D+03  .808024460479D+00 -.882679624292D-08
    -.203937066226D-09  .100000000000D+01  .158700000000D+04  .000000000000D+00
     .340000000000D+01  .000000000000D+00 -.116415321827D-07  .870000000000D+02
     .597606000000D+06  .400000000000D+01
12 10  6  6  0  0  0.0 -.107315834612D-03  .420641299570D-11  .000000000000D+00
     .500000000000D+02 -.210312500000D+02  .471483924912D-08 -.863187729222D+00
    -.101886689663D-05  .352200388443D-02  .595115125179D-05  .515367581558D+04
     .000000000000D+00  .745058059692D-08 -.296437591317D+01 -.409781932831D-07
     .971175306470D+00  .272218750000D+03 -.426279211966D+00 -.817641200895D-08
     .171078554680D-09  .100000000000D+01  .158700000000D+04  .000000000000D+00
     .240000000000D+01  .000000000000D+00 -.116415321827D-07  .500000000000D+02
     .597606000000D+06  .400000000000D+01
13 10  6  6  0  0  0.0  .303624663502D-03 -.454747350886D-12  .000000000000D+00
     .740000000000D+02 -.282812500000D+02  .366479551059D-08  .163780212512D+01
    -.149011611938D-05  .449748861138D-02  .693276524544D-05  .515375342178D+04
     .000000000000D+00  .465661287308D-07  .128380440370D+01 -.633299350739D-07
     .992653167509D+00  .262718750000D+03  .173081471261D+01 -.772353600199D-08
    -.442875590403D-10  .100000000000D+01  .158700000000D+04  .000000000000D+00
     .240000000000D+01  .000000000000D+00 -.107102096081D-07  .740000000000D+02
     .597606000000D+06  .400000000000D+01
